CANX-4                  
1 40055U 14034C   24269.09326609  .00003109  00000+0  43125-3 0  9994
2 40055  98.3879 108.0174 0012360 228.8121 131.2024 14.78682177551349
CANX-5                  
1 40056U 14034D   24268.48876764  .00002883  00000+0  40044-3 0  9994
2 40056  98.3882 107.3958 0012326 231.1613 128.8497 14.78688531542033
UKUBE-1                 
1 40074U 14037F   24268.32725332  .00013595  00000+0  11987-2 0  9999
2 40074  98.3454 204.5262 0006937  96.3228 263.8782 14.96544163553592
BRITE-PL2 (HEWELIUSZ)   
1 40119U 14049B   24268.51899086  .00004443  00000+0  46686-3 0  9998
2 40119  97.8849   7.8104 0016028  41.1500 319.0923 14.89879473547362
AEROCUBE 5C             
1 40965U 15058B   24268.50314016  .00006996  00000+0  61519-3 0  9999
2 40965  64.7698  56.4458 0191998 278.2143  79.7231 14.84149843271760
AEROCUBE 7              
1 40966U 15058C   24268.51682976  .00008887  00000+0  74532-3 0  9994
2 40966  64.7678  49.1806 0186288 277.8306  80.1693 14.86362945271868
FOX-1A (AO-85)          
1 40967U 15058D   24268.73854692  .00007132  00000+0  64007-3 0  9993
2 40967  64.7769  69.9595 0190554 273.8989  84.0355 14.83567564 19756
SINOD-D 1               
1 40968U 15058E   24269.17164530  .00011749  00000+0  99733-3 0  9991
2 40968  64.7778  60.3662 0184423 272.7485  85.2529 14.85953009 22669
SNAP-3 ALICE            
1 40970U 15058G   24268.42182817  .00030787  00000+0  18925-2 0  9995
2 40970  64.7717  13.5182 0150321 271.3034  87.0867 15.00932489 20656
LMRST-SAT               
1 40971U 15058H   24268.71765565  .00007142  00000+0  63922-3 0  9992
2 40971  64.7768  65.5707 0191914 275.3238  82.6001 14.83496139 19753
SNAP-3 EDDIE            
1 40972U 15058J   24268.54029622  .00033990  00000+0  20600-2 0  9996
2 40972  64.7687   6.3457 0150590 272.2800  86.1082 15.01356045 22771
PROPCUBE 3              
1 40973U 15058K   24268.68288114  .00009005  00000+0  76769-3 0  9993
2 40973  64.7713  52.5275 0188187 276.7043  81.2682 14.85522962 20802
BISONSAT                
1 40974U 15058L   24268.60236332  .00020437  00000+0  14425-2 0  9993
2 40974  64.7688  23.2891 0166480 274.4950  83.7162 14.94414429 20603
SNAP-3 JIMI             
1 40975U 15058M   24268.47585186  .00012819  00000+0  10092-2 0  9994
2 40975  64.7702  39.5960 0179053 275.7755  82.2968 14.89268197 19806
PROPCUBE 1 (FLORA)      
1 40976U 15058N   24268.52036406  .00005670  00000+0  53084-3 0  9993
2 40976  64.7750  82.1559 0190292 276.6142  81.3338 14.82290597 22511
SINOD-D 3               
1 40977U 15058P   24268.83802925  .00008593  00000+0  76136-3 0  9995
2 40977  64.7743  73.4620 0184045 275.6948  82.3202 14.84662064 20814
HORYU-4                 
1 41340U 16012D   24268.74144093  .00024452  00000+0  10774-2 0  9993
2 41340  31.0025  44.9865 0007172 271.4978  88.4841 15.20627021473290
RAVAN                   
1 41849U 16067B   24269.07046452  .00020120  00000+0  10046-2 0  9994
2 41849  98.0670  92.8850 0012516  50.4066 309.8269 15.17463518431114
CELTEE 1                
1 41850U 16067C   24268.46700764  .00010266  00000+0  65970-3 0  9998
2 41850  98.1097  83.2578 0000945 167.5288 192.5962 15.08640436430381
OPTICUBE 04             
1 41851U 16067D   24268.73087394  .00006349  00000+0  46266-3 0  9990
2 41851  98.0866  77.9752 0019153  83.7330 276.6076 15.03981027430195
AEROCUBE 8D             
1 41852U 16067E   24269.02800711  .00014797  00000+0  90659-3 0  9991
2 41852  98.1146  83.8871 0005400 128.8196 231.3514 15.10277577430457
AEROCUBE 8C             
1 41853U 16067F   24269.04374400  .00015096  00000+0  92475-3 0  9996
2 41853  98.0963  82.2396 0007765  65.2039 294.9996 15.10265943430447
PROMETHEUS 2-1          
1 41854U 16067G   24269.06669319  .00036003  00000+0  15392-2 0  9998
2 41854  98.1018  91.4543 0011059  76.5522 283.6944 15.22701719430907
PROMETHEUS 2-3          
1 41855U 16067H   24268.47456201  .00032280  00000+0  13864-2 0  9992
2 41855  98.0957  90.2083 0009468  88.9222 271.3097 15.22585723430818
CORVUS BC2              
1 42846U 17042X   24268.76422754  .00006788  00000+0  56297-3 0  9997
2 42846  97.3752  88.4215 0008283  86.0399 274.1771 14.99081207392355
CORVUS BC1              
1 42847U 17042Y   24268.44803420  .00007424  00000+0  61259-3 0  9998
2 42847  97.3749  88.5352 0009636  87.3852 272.8474 14.99239542392325
MIRATA                  
1 43015U 17073C   24268.62638255  .00039589  00000+0  15998-2 0  9997
2 43015  97.5772 152.5641 0149007 279.7751  78.6682 15.14941571371348
MAKERSAT 0              
1 43016U 17073D   24268.55323358  .00025584  00000+0  13484-2 0  9993
2 43016  97.5539 144.9203 0180815 306.0564  52.4026 15.02486949370810
GOMX-4B                 
1 43196U 18015E   24269.03166016  .00483938  10132-3  10460-2 0  9992
2 43196  97.5954  92.1207 0007643 274.7402  85.3002 15.98361781371245
SIRION PATHFINDER-2     
1 43759U 18099B   24268.38722634  .00008437  00000+0  60456-3 0  9997
2 43759  97.5170 321.7975 0009578 314.1354  45.9084 15.04583840317417
CORVUS BC4              
1 43767U 18099K   24268.73716575  .00007827  00000+0  57439-3 0  9991
2 43767  97.5028 319.0323 0010146  18.1497 342.0089 15.03705675317346
MOVE-II                 
1 43780U 18099Y   24268.64126310  .00039835  00000+0  16879-2 0  9994
2 43780  97.5096 331.0843 0004323 359.0370   1.0857 15.23023960318027
SPACEBEE-7              
1 43816U 18099BL  24268.16856606  .00024583  00000+0  12675-2 0  9993
2 43816  97.5374 330.8994 0007508 305.5180  54.5352 15.16327698317381
SPACEBEE-6              
1 43818U 18099BN  24269.18353744  .00107821  00000+0  30300-2 0  9995
2 43818  97.5280 339.4174 0006513 276.1762  83.8739 15.36073528318183
SHIELDS 1               
1 43850U 18104B   24268.30424771  .00027177  00000+0  63097-3 0  9995
2 43850  85.0233 215.6315 0013494  68.6607 291.6085 15.42132413321418
SONATE                  
1 44400U 19038Q   24268.74182563  .00041997  00000+0  10127-2 0  9993
2 44400  97.7170 267.7531 0017500 108.2941 252.0210 15.40951235289370
LUCKY-7                 
1 44406U 19038W   24268.58511595  .00104138  00000+0  13319-2 0  9995
2 44406  97.7024 273.5890 0014205  95.5697 264.7179 15.58754322289766
DUCHIFAT-3              
1 44854U 19089C   24269.06071088  .00032088  00000+0  13833-2 0  9995
2 44854  36.9535 160.5335 0008715 245.0019 114.9824 15.21684399263393
M2 PATHFINDER           
1 45727U 20037E   24268.53344845  .00005813  00000+0  49131-3 0  9992
2 45727  97.7834  84.5610 0011184 146.6986 213.4942 14.98416215230814
NETSAT-4                
1 46504U 20068U   24268.63317979  .00019617  00000+0  95395-3 0  9999
2 46504  97.8158 228.7173 0010754  36.2030 323.9929 15.18405922219242
NETSAT-3                
1 46505U 20068V   24268.85441489  .00019855  00000+0  98107-3 0  9996
2 46505  97.8131 228.3264 0010520  43.7402 316.4662 15.17848517219261
NETSAT-1                
1 46506U 20068W   24268.63346591  .00015132  00000+0  79959-3 0  9999
2 46506  97.8159 227.3023 0009813  53.3230 306.8902 15.15556180219173
NETSAT-2                
1 46507U 20068X   24268.65308553  .00019759  00000+0  96103-3 0  9997
2 46507  97.8137 228.3413 0009123  58.8632 301.3495 15.18411808219193
WILDTRACKCUBE-SIMBA     
1 47941U 21022K   24269.20921605  .00032653  00000+0  12617-2 0  9997
2 47941  97.4446 165.2932 0015536 143.3641 216.8663 15.26065491193690
GRBALPHA                
1 47959U 21022AD  24269.10345797  .00045239  00000+0  14168-2 0  9994
2 47959  97.4443 167.8434 0014591 131.6560 228.5933 15.32854070192674
BEESAT-8                
1 48085U 21022AP  24268.98124162  .00069042  00000+0  15881-2 0  9992
2 48085  97.4663 172.6458 0013592 116.3766 243.8878 15.42308771193208
LEDSAT                  
1 49069U 21073D   24269.17020594  .00041157  00000+0  13872-2 0  9992
2 49069  97.4270 339.9313 0015965 288.2108  71.7395 15.30494130171714
ROBUSTA-1F (MTCUBE 2)   
1 53109U 22080E   24268.07913662 -.00000003  00000+0  00000+0 0  9998
2 53109  70.1258 157.7435 0007896  66.7572 293.3919  6.42583934 51510
SITRO-AIS 5 (KATYS)     
1 57176U 23091L   24269.17799778  .00018254  00000+0  10854-2 0  9998
2 57176  97.6011 320.6126 0018100 137.5263 222.7371 15.11179687 68586
SITRO-AIS 6 (CHIRKIN)   
1 57192U 23091AC  24269.09345206  .00016038  00000+0  95360-3 0  9994
2 57192  97.6015 320.5586 0017927 137.4348 222.8275 15.11212568 68575
SITRO-AIS 8 (ANOKHIN)   
1 57193U 23091AD  24269.10100647  .00016736  00000+0  98085-3 0  9997
2 57193  97.6012 320.6922 0017578 138.3927 221.8644 15.11729145 68587
SITRO-AIS 7 (FARTUSHNIY)
1 57194U 23091AE  24269.16826218  .00018034  00000+0  10734-2 0  9990
2 57194  97.6011 320.6049 0017758 137.9321 222.3276 15.11149473 68587
SITRO-AIS 10 (BURDAEV)  
1 57199U 23091AK  24269.20946213  .00020982  00000+0  11606-2 0  9992
2 57199  97.6029 322.0146 0013237 125.5130 234.7337 15.13815176 68671
SITRO-AIS 9 (SHCHUKIN)  
1 57201U 23091AM  24269.14323100  .00020214  00000+0  11195-2 0  9994
2 57201  97.6024 321.9194 0013202 125.7132 234.5330 15.13779191 68663
SITRO-AIS 12 (SMIRENNIY)
1 57204U 23091AQ  24269.09293489  .00019053  00000+0  10499-2 0  9992
2 57204  97.6032 322.0408 0012997 120.8314 239.4198 15.13975565 68662
SITRO-AIS 11 (SHEFFER)  
1 57208U 23091AU  24269.07202694  .00018363  00000+0  10087-2 0  9998
2 57208  97.6030 322.0553 0012999 120.9246 239.3265 15.14095678 68665
ROBUSTA-1E (ENSO)       
1 58470U 23185J   24269.16239195  .00037992  00000+0  13566-2 0  9994
2 58470  97.4149 335.1098 0010021 282.8498  77.1622 15.28706462 45380
SITRO-AIS 29            
1 59052U 24039B   24269.15566145  .00054713  00000+0  15688-2 0  9994
2 59052  97.4004 230.8603 0012806 203.7956 156.2697 15.35622977 31892
